{
  "type": "FeatureCollection",
  "features": [
    {
      "type": "Feature",
      "properties": {
        "timestamp": "08.04.2026 21:41:51",
        "user": "админ",
        "description": "⚠️🕳️ асфальт корявый, кочки и камни 🆘🛼💀",
        "action": "create",
        "popup": "<b>Дата:</b> 08.04.2026 21:41:51<br><b>Пользователь:</b> админ<br><b>Описание:</b> ⚠️🕳️ асфальт корявый, кочки и камни 🆘🛼💀"
      },
      "geometry": {
        "type": "LineString",
        "coordinates": [
          [
            37.513644,
            55.941654
          ],
          [
            37.515682,
            55.941936
          ]
        ]
      }
    },
    {
      "type": "Feature",
      "properties": {
        "timestamp": "08.04.2026 21:44:41",
        "user": "админ",
        "description": "✅🛣️💨😎 асфальт положили  🟢🛼⚡🚀🆗 ",
        "action": "delete",
        "popup": "<b>Дата:</b> 08.04.2026 21:44:41<br><b>Пользователь:</b> админ<br><b>Описание:</b> ✅🛣️💨😎 асфальт положили  🟢🛼⚡🚀🆗 "
      },
      "geometry": {
        "type": "LineString",
        "coordinates": [
          [
            37.509309,
            55.942435
          ],
          [
            37.516658,
            55.943661
          ]
        ]
      }
    },
    {
      "type": "Feature",
      "properties": {
        "timestamp": "10.04.2026 0:08:44",
        "user": "админ",
        "description": "Тут глина и камни 🆘🛼💀",
        "action": "create",
        "popup": "<b>Дата:</b> 10.04.2026 0:08:44<br><b>Пользователь:</b> админ<br><b>Описание:</b> Тут глина и камни 🆘🛼💀"
      },
      "geometry": {
        "type": "LineString",
        "coordinates": [
          [
            37.486478,
            55.955069
          ],
          [
            37.486467,
            55.954918
          ],
          [
            37.487723,
            55.954444
          ],
          [
            37.487744,
            55.954156
          ]
        ]
      }
    },
    {
      "type": "Feature",
      "properties": {
        "timestamp": "19.04.2026 14:37:04",
        "user": "Иван",
        "description": "асфальт разобрали, обе стороны полный ахтунг!",
        "action": "create",
        "popup": "<b>Дата:</b> 19.04.2026 14:37:04<br><b>Пользователь:</b> Иван<br><b>Описание:</b> асфальт разобрали, обе стороны полный ахтунг!"
      },
      "geometry": {
        "type": "LineString",
        "coordinates": [
          [
            37.670438,
            55.601832
          ],
          [
            37.673441,
            55.591206
          ],
          [
            37.677002,
            55.586571
          ]
        ]
      }
    },
    {
      "type": "Feature",
      "properties": {
        "timestamp": "04.05.2026 13:15:18",
        "user": "admin",
        "description": "тротуар разобран, плитка снята 🆘🛼💀",
        "action": "create",
        "popup": "<b>Дата:</b> 04.05.2026 13:15:18<br><b>Пользователь:</b> admin<br><b>Описание:</b> тротуар разобран, плитка снята 🆘🛼💀"
      },
      "geometry": {
        "type": "LineString",
        "coordinates": [
          [
            37.50627,
            55.946986
          ],
          [
            37.506903,
            55.945639
          ]
        ]
      }
    },
    {
      "type": "Feature",
      "properties": {
        "timestamp": "10.05.2026 19:05:02",
        "user": "admin",
        "description": "асфальт разобрали",
        "action": "create",
        "popup": "<b>Дата:</b> 10.05.2026 19:05:02<br><b>Пользователь:</b> admin<br><b>Описание:</b> асфальт разобрали"
      },
      "geometry": {
        "type": "LineString",
        "coordinates": [
          [
            37.551731,
            55.944472
          ],
          [
            37.552128,
            55.943396
          ],
          [
            37.55231,
            55.943408
          ],
          [
            37.551892,
            55.944508
          ]
        ]
      }
    },
    {
      "type": "Feature",
      "properties": {
        "timestamp": "10.05.2026 19:06:26",
        "user": "admin",
        "description": "сужение проезжки, ремонт, камни",
        "action": "create",
        "popup": "<b>Дата:</b> 10.05.2026 19:06:26<br><b>Пользователь:</b> admin<br><b>Описание:</b> сужение проезжки, ремонт, камни"
      },
      "geometry": {
        "type": "LineString",
        "coordinates": [
          [
            37.546678,
            55.939935
          ],
          [
            37.548287,
            55.935056
          ]
        ]
      }
    },
    {
      "type": "Feature",
      "properties": {
        "timestamp": "13.05.2026 20:44:20",
        "user": "admin",
        "description": "Тротуар сняли, проезжка свободна",
        "action": "create",
        "popup": "<b>Дата:</b> 13.05.2026 20:44:20<br><b>Пользователь:</b> admin<br><b>Описание:</b> Тротуар сняли, проезжка свободна"
      },
      "geometry": {
        "type": "LineString",
        "coordinates": [
          [
            37.535819,
            55.922595
          ],
          [
            37.535626,
            55.922354
          ],
          [
            37.535626,
            55.921861
          ],
          [
            37.536055,
            55.921188
          ],
          [
            37.536033,
            55.920971
          ]
        ]
      }
    },
    {
      "type": "Feature",
      "properties": {
        "timestamp": "17.05.2026 19:21:12",
        "user": "admin",
        "description": "камни и ямы",
        "action": "create",
        "popup": "<b>Дата:</b> 17.05.2026 19:21:12<br><b>Пользователь:</b> admin<br><b>Описание:</b> камни и ямы"
      },
      "geometry": {
        "type": "LineString",
        "coordinates": [
          [
            37.51532,
            55.945667
          ],
          [
            37.516371,
            55.94396
          ]
        ]
      }
    },
    {
      "geometry": {
        "type": "LineString",
        "coordinates": [
          [
            37.50627,
            55.946986
          ],
          [
            37.506903,
            55.945639
          ]
        ]
      },
      "properties": {
        "action": "create",
        "popup": "<b>Achtung! </b>04-May\nadmin: \nтротуар разобран, плитка снята 🆘🛼💀",
        "popup_min": "<b>Achtung! </b>04-May\nadmin",
        "timestamp": "20.05.2026 20:16:53",
        "user": "админ",
        "description": "новый асфальт"
      },
      "type": "Feature"
    }
  ]
}